{"spkid": "50740522", "covariance": {"epoch": "2457773.5", "labels": ["e", "q", "tp", "node", "peri", "i"], "data": [["5.019272003649009E-14", "-4.365395538994756E-14", "-9.363246854130004E-12", "-9.39677380446171E-14", "-4.76361482193783E-12", "2.64670800181715E-12"], ["-4.365395538994756E-14", "3.798299690999997E-14", "8.142631865785615E-12", "8.440633623804446E-14", "4.12786584305372E-12", "-2.306995321043703E-12"], ["-9.363246854130004E-12", "8.142631865785615E-12", "2.126260643530111E-9", "-4.747224138203041E-11", "1.231857163039138E-9", "-2.378879058939295E-10"], ["-9.39677380446171E-14", "8.440633623804446E-14", "-4.747224138203041E-11", "5.494211992377982E-11", "-9.022723170822761E-11", "-9.292501027462362E-11"], ["-4.76361482193783E-12", "4.12786584305372E-12", "1.231857163039138E-9", "-9.022723170822761E-11", "8.12141265962695E-10", "1.90257251696067E-11"], ["2.64670800181715E-12", "-2.306995321043703E-12", "-2.378879058939295E-10", "-9.292501027462362E-11", "1.90257251696067E-11", "5.65594802596097E-10"]], "elements": [{"name": "e", "sigma": 2.240373184014e-07, "title": "eccentricity", "value": ".2717073916347291", "units": null, "label": "e"}, {"label": "q", "sigma": 1.94892270010896e-07, "name": "q", "value": ".6337482629012889", "title": "perihelion distance", "units": "au"}, {"label": "tp", "sigma": 4.61113938580272e-05, "name": "tp", "title": "time of perihelion passage", "value": "2457814.817146108533", "units": "TDB"}, {"units": "deg", "title": "longitude of the ascending node", "value": "306.9244965897045", "sigma": 7.41229518595825e-06, "name": "om", "label": "node"}, {"label": "peri", "sigma": 2.84980923214642e-05, "name": "w", "units": "deg", "title": "argument of perihelion", "value": "324.3825635225779"}, {"units": "deg", "title": "inclination", "value": "17.36127965607285", "sigma": 2.3782237123452e-05, "name": "i", "label": "i"}]}, "elements": [{"sigma": "2.2446E-7", "name": "e", "value": ".2716403892673438", "title": "eccentricity", "units": null, "label": "e"}, {"sigma": "5.1387E-9", "name": "a", "units": "au", "title": "semi-major axis", "value": ".870078552678383", "label": "a"}, {"units": "au", "title": "perihelion distance", "value": ".6337300759356599", "name": "q", "sigma": "1.9495E-7", "label": "q"}, {"sigma": "2.3784E-5", "name": "i", "title": "inclination; angle with respect to x-y ecliptic plane", "value": "17.36386245823063", "units": "deg", "label": "i"}, {"title": "longitude of the ascending node", "value": "306.8715176935818", "units": "deg", "name": "om", "sigma": "7.3687E-6", "label": "node"}, {"sigma": "2.8443E-5", "name": "w", "value": "324.4332762103676", "title": "argument of perihelion", "units": "deg", "label": "peri"}, {"label": "M", "units": "deg", "value": "151.3545028501702", "title": "mean anomaly", "sigma": "6.5884E-5", "name": "ma"}, {"name": "tp", "sigma": "5.3714E-5", "value": "2461075.868171345677", "title": "time of perihelion passage", "units": "TDB", "label": "tp"}, {"label": "period", "title": "sidereal orbital period", "value": "296.4395341443648", "units": "d", "sigma": "2.6262E-6", "name": "per"}, {"label": "n", "name": "n", "sigma": "1.0759E-8", "title": "mean motion", "value": "1.21441291911045", "units": "deg/d"}, {"sigma": "6.5346E-9", "name": "ad", "units": "au", "title": "aphelion distance", "value": "1.106427029421106", "label": "Q"}], "epoch": "2461200.5"}